STARLINK-36288          
1 69164U 26111S   26166.25002315 -.02487560  00000+0 -29724-1 0  9994
2 69164  53.1595 161.6031 0001262  95.4949 163.5508 15.63936860  5230
STARLINK-37445          
1 69165U 26111T   26166.25002315 -.02484645  00000+0 -32889-1 0  9992
2 69165  53.1601 161.6620 0001311  87.4911 143.0815 15.61342793  5236
STARLINK-37491          
1 69166U 26111U   26166.25002315 -.02595487  00000+0 -24362-1 0  9997
2 69166  53.1593 161.5032 0000842  82.9892 225.4510 15.69986491  5233
STARLINK-37474          
1 69167U 26111V   26165.49285652  .00248272  00000+0  13871-2 0  9997
2 69167  53.1570 165.2100 0000913  76.2100 283.9024 15.78142856  3835
STARLINK-37469          
1 69168U 26111W   26166.24266632  .00035268  00000+0  63884-3 0  9998
2 69168  53.1592 162.8072 0000582 104.9995 255.1079 15.49330184  3937
STARLINK-37515          
1 69169U 26111X   26166.25002315 -.02552242  00000+0 -27939-1 0  9995
2 69169  53.1593 161.5041 0001006 109.2282 198.4376 15.66209030  5238
STARLINK-37437          
1 69170U 26111Y   26166.25002315 -.02548897  00000+0 -23972-1 0  9991
2 69170  53.1597 161.4061 0000995  82.6285 272.9285 15.69871473  5234
STARLINK-37392          
1 69171U 26111Z   26166.25002315 -.02522503  00000+0 -28439-1 0  9991
2 69171  53.1598 161.4424 0000872  93.8535 242.9333 15.65439822  5230
STARLINK-37472          
1 69172U 26111AA  26166.25002315 -.01701053  00000+0 -32809-1 0  9996
2 69172  53.1592 161.7808 0000818  75.0136  94.9959 15.50509681  5237
STARLINK-37461          
1 69173U 26111AB  26166.29905945  .00023770  00000+0  43377-3 0  9996
2 69173  53.1587 162.4449 0001239  82.1357 277.9792 15.49333570  3947
STARLINK-37333          
1 69174U 26111AC  26166.25002315 -.01378245  00000+0 -16480-1 0  9998
2 69174  53.1600 161.6234 0001431 101.5379 147.0342 15.63069899  5239
STARLINK-37385          
1 69175U 26111AD  26166.29138615  .00022954  00000+0  41936-3 0  9992
2 69175  53.1589 162.3951 0000824 102.0382 258.0720 15.49322075  3946
STARLINK-37414          
1 69176U 26111AE  26166.25002315 -.02558110  00000+0 -29161-1 0  9992
2 69176  53.1598 161.4540 0000854  84.3943 246.9332 15.65220704  5232
STRIX-7                 
1 69177U 26112A   26166.24286693  .00002025  00000+0  17142-3 0  9999
2 69177  44.9056 202.6614 0023310  36.0010 324.2427 15.01428504  3580
SHENZHOU-23 (SZ-23)     
1 69180U 26113A   26166.24937272  .00019313  00000+0  22892-3 0  9996
2 69180  41.4695 333.7940 0007562  61.5785 298.5815 15.60733648293113
STARLINK-37380          
1 69182U 26114A   26166.31954808  .00133304  00000+0  75875-3 0  9997
2 69182  53.1581 211.8304 0001036  96.9625 263.1515 15.78081487  4474
STARLINK-37089          
1 69183U 26114B   26166.31861414  .00186287  00000+0  10542-2 0  9995
2 69183  53.1580 211.8246 0000954  80.2314 279.8816 15.78040716  4476
STARLINK-37428          
1 69184U 26114C   26166.31720680  .00054714  00000+0  31684-3 0  9995
2 69184  53.1579 211.8151 0001017 100.5515 259.5621 15.78061720  4477
STARLINK-37237          
1 69185U 26114D   26166.25112038  .00112463  00000+0  64291-3 0  9997
2 69185  53.1582 212.1133 0000742 108.9582 251.1520 15.78060163  4461
STARLINK-37365          
1 69186U 26114E   26166.31477372  .00181124  00000+0  10228-2 0  9990
2 69186  53.1582 211.7984 0003340  32.2955 327.8270 15.78100133  4477
STARLINK-37209          
1 69187U 26114F   26166.31399429  .00105618  00000+0  60396-3 0  9993
2 69187  53.1579 211.7931 0001090 115.5580 244.5554 15.78079970  4479
STARLINK-37359          
1 69188U 26114G   26166.31355443  .00092843  00000+0  53223-3 0  9998
2 69188  53.1583 211.7908 0000987  74.7156 285.3975 15.78077369  4478
STARLINK-37440          
1 69189U 26114H   26166.20219044 -.00103246  00000+0 -52915-3 0  9992
2 69189  53.1575 211.7828 0003090  34.8808 325.2417 15.80726512  4468
STARLINK-37282          
1 69190U 26114J   26166.24376641  .00223947  00000+0  12557-2 0  9991
2 69190  53.1579 212.0625 0001239 105.6401 254.4758 15.78132988  4468
STARLINK-37422          
1 69191U 26114K   26165.72367429 -.00215107  00000+0 -11085-2 0  9994
2 69191  53.1574 214.5037 0000618  97.6848 262.4245 15.80973810  4384
STARLINK-37424          
1 69192U 26114L   26166.30707899  .02835239  00000+0  13199-1 0  9990
2 69192  53.1576 211.7467 0004522 260.7080  99.3430 15.79506764  4473
STARLINK-36666          
1 69193U 26114M   26166.29287237  .00225111  00000+0  11086-2 0  9992
2 69193  53.1571 211.6527 0001003  80.1910 279.9227 15.80989464  4476
STARLINK-37355          
1 69194U 26114N   26166.29212977  .00114073  00000+0  57293-3 0  9997
2 69194  53.1569 211.6471 0001266 109.8470 250.2689 15.80908815  4478
STARLINK-37166          
1 69195U 26114P   26166.29062931  .00130736  00000+0  65451-3 0  9990
2 69195  53.1569 211.6363 0001104  89.1355 270.9795 15.80920111  4472
