OBJECT_NAME,OBJECT_ID,EPOCH,MEAN_MOTION,ECCENTRICITY,INCLINATION,RA_OF_ASC_NODE,ARG_OF_PERICENTER,MEAN_ANOMALY,EPHEMERIS_TYPE,CLASSIFICATION_TYPE,NORAD_CAT_ID,ELEMENT_SET_NO,REV_AT_EPOCH,BSTAR,MEAN_MOTION_DOT,MEAN_MOTION_DDOT
STARLINK-36288,2026-111S,2026-06-15T06:00:02.000160,15.63936860,.00012628,53.1595,161.6031,95.4949,163.5508,0,U,69164,999,523,-.29724293E-1,-.248756E-1,0
STARLINK-37445,2026-111T,2026-06-15T06:00:02.000160,15.61342793,.0001311,53.1601,161.6620,87.4911,143.0815,0,U,69165,999,523,-.32888543E-1,-.2484645E-1,0
STARLINK-37491,2026-111U,2026-06-15T06:00:02.000160,15.69986491,.00008428,53.1593,161.5032,82.9892,225.4510,0,U,69166,999,523,-.24361643E-1,-.2595487E-1,0
STARLINK-37474,2026-111V,2026-06-14T11:49:42.803328,15.78142856,.00009138,53.1570,165.2100,76.2100,283.9024,0,U,69167,999,383,.13870743E-2,.248272E-2,0
STARLINK-37469,2026-111W,2026-06-15T05:49:26.370048,15.49330184,.0000582,53.1592,162.8072,104.9995,255.1079,0,U,69168,999,393,.63884065E-3,.35268E-3,0
STARLINK-37515,2026-111X,2026-06-15T06:00:02.000160,15.66209030,.00010064,53.1593,161.5041,109.2282,198.4376,0,U,69169,999,523,-.27938554E-1,-.2552242E-1,0
STARLINK-37437,2026-111Y,2026-06-15T06:00:02.000160,15.69871473,.00009957,53.1597,161.4061,82.6285,272.9285,0,U,69170,999,523,-.23971565E-1,-.2548897E-1,0
STARLINK-37392,2026-111Z,2026-06-15T06:00:02.000160,15.65439822,.00008729,53.1598,161.4424,93.8535,242.9333,0,U,69171,999,523,-.28439443E-1,-.2522503E-1,0
STARLINK-37472,2026-111AA,2026-06-15T06:00:02.000160,15.50509681,.00008183,53.1592,161.7808,75.0136,94.9959,0,U,69172,999,523,-.32809348E-1,-.1701053E-1,0
STARLINK-37461,2026-111AB,2026-06-15T07:10:38.736480,15.49333570,.00012392,53.1587,162.4449,82.1357,277.9792,0,U,69173,999,394,.4337678E-3,.2377E-3,0
STARLINK-37333,2026-111AC,2026-06-15T06:00:02.000160,15.63069899,.00014317,53.1600,161.6234,101.5379,147.0342,0,U,69174,999,523,-.16480056E-1,-.1378245E-1,0
STARLINK-37385,2026-111AD,2026-06-15T06:59:35.763360,15.49322075,.00008242,53.1589,162.3951,102.0382,258.0720,0,U,69175,999,394,.41935741E-3,.22954E-3,0
STARLINK-37414,2026-111AE,2026-06-15T06:00:02.000160,15.65220704,.00008541,53.1598,161.4540,84.3943,246.9332,0,U,69176,999,523,-.29161107E-1,-.255811E-1,0
STRIX-7,2026-112A,2026-06-15T05:49:43.702752,15.01428504,.00233108,44.9056,202.6614,36.0010,324.2427,0,U,69177,999,358,.17141776E-3,.2025E-4,0
SHENZHOU-23 (SZ-23),2026-113A,2026-06-15T05:59:05.803008,15.60733648,.00075623,41.4695,333.7940,61.5785,298.5815,0,U,69180,999,29311,.22891853E-3,.19313E-3,0
STARLINK-37380,2026-114A,2026-06-15T07:40:08.954112,15.78081487,.00010364,53.1581,211.8304,96.9625,263.1515,0,U,69182,999,447,.75875241E-3,.133304E-2,0
STARLINK-37089,2026-114B,2026-06-15T07:38:48.261696,15.78040716,.00009545,53.1580,211.8246,80.2314,279.8816,0,U,69183,999,447,.10541552E-2,.186287E-2,0
STARLINK-37428,2026-114C,2026-06-15T07:36:46.667520,15.78061720,.00010173,53.1579,211.8151,100.5515,259.5621,0,U,69184,999,447,.31684415E-3,.54714E-3,0
STARLINK-37237,2026-114D,2026-06-15T06:01:36.800832,15.78060163,.00007425,53.1582,212.1133,108.9582,251.1520,0,U,69185,999,446,.6429078E-3,.112463E-2,0
STARLINK-37365,2026-114E,2026-06-15T07:33:16.449408,15.78100133,.00033408,53.1582,211.7984,32.2955,327.8270,0,U,69186,999,447,.10227707E-2,.181124E-2,0
STARLINK-37209,2026-114F,2026-06-15T07:32:09.106656,15.78079970,.00010904,53.1579,211.7931,115.5580,244.5554,0,U,69187,999,447,.60395775E-3,.105618E-2,0
STARLINK-37359,2026-114G,2026-06-15T07:31:31.102752,15.78077369,.00009874,53.1583,211.7908,74.7156,285.3975,0,U,69188,999,447,.53222614E-3,.92843E-3,0
STARLINK-37440,2026-114H,2026-06-15T04:51:09.254016,15.80726512,.00030906,53.1575,211.7828,34.8808,325.2417,0,U,69189,999,446,-.52915384E-3,-.103246E-2,0
STARLINK-37282,2026-114J,2026-06-15T05:51:01.417824,15.78132988,.00012394,53.1579,212.0625,105.6401,254.4758,0,U,69190,999,446,.12557003E-2,.223947E-2,0
STARLINK-37422,2026-114K,2026-06-14T17:22:05.458656,15.80973810,.00006186,53.1574,214.5037,97.6848,262.4245,0,U,69191,999,438,-.11084834E-2,-.215107E-2,0
STARLINK-37424,2026-114L,2026-06-15T07:22:11.624736,15.79506764,.00045227,53.1576,211.7467,260.7080,99.3430,0,U,69192,999,447,.13199493E-1,.2835239E-1,0
STARLINK-36666,2026-114M,2026-06-15T07:01:44.172768,15.80989464,.00010039,53.1571,211.6527,80.1910,279.9227,0,U,69193,999,447,.11086159E-2,.225111E-2,0
STARLINK-37355,2026-114N,2026-06-15T07:00:40.012128,15.80908815,.00012661,53.1569,211.6471,109.8470,250.2689,0,U,69194,999,447,.57293424E-3,.114073E-2,0
STARLINK-37166,2026-114P,2026-06-15T06:58:30.372384,15.80920111,.00011045,53.1569,211.6363,89.1355,270.9795,0,U,69195,999,447,.65450624E-3,.130736E-2,0
